{
  "type": "FeatureCollection",
  "features": [
    {
      "type": "Feature",
      "properties": {
        "norad_id": 30892,
        "name": "FENGYUN 1C DEB",
        "group": "fengyun-1c-debris",
        "lat": -10.017194458439791,
        "lon": -70.8173093419208,
        "alt_km": 857.4897565435576,
        "timestamp": "2025-12-10T11:33:53.664620+00:00",
        "meta_object_name": "FENGYUN 1C DEB",
        "meta_object_id": "1999-025AYE",
        "meta_epoch": "2025-12-02T15:45:32.268672",
        "meta_mean_motion": 14.18893658,
        "meta_eccentricity": 0.00376287,
        "meta_inclination": 99.6617,
        "meta_ra_of_asc_node": 278.9389,
        "meta_arg_of_pericenter": 217.7485,
        "meta_mean_anomaly": 142.1047,
        "meta_ephemeris_type": 0,
        "meta_classification_type": "U",
        "meta_norad_cat_id": 30892,
        "meta_element_set_no": 999,
        "meta_rev_at_epoch": 64160,
        "meta_bstar": 0.00053864396,
        "meta_mean_motion_dot": 1.078e-05,
        "meta_mean_motion_ddot": 0,
        "tle_line1": "1 30892U 99025AYE 25336.65662348  .00001078  00000+0  53864-3 0  9990",
        "tle_line2": "2 30892  99.6617 278.9389 0037628 217.7485 142.1047 14.18893658641607"
      },
      "geometry": {
        "type": "Point",
        "coordinates": [
          -70.8173093419208,
          -10.017194458439791
        ]
      }
    },
    {
      "type": "Feature",
      "properties": {
        "norad_id": 30893,
        "name": "FENGYUN 1C DEB",
        "group": "fengyun-1c-debris",
        "lat": -81.49376757035469,
        "lon": 88.05801532415866,
        "alt_km": 1145.7232244236984,
        "timestamp": "2025-12-10T11:33:53.664630+00:00",
        "meta_object_name": "FENGYUN 1C DEB",
        "meta_object_id": "1999-025AYF",
        "meta_epoch": "2025-12-06T08:24:45.258048",
        "meta_mean_motion": 13.94039277,
        "meta_eccentricity": 0.03095885,
        "meta_inclination": 98.258,
        "meta_ra_of_asc_node": 8.1876,
        "meta_arg_of_pericenter": 110.75,
        "meta_mean_anomaly": 318.9405,
        "meta_ephemeris_type": 0,
        "meta_classification_type": "U",
        "meta_norad_cat_id": 30893,
        "meta_element_set_no": 999,
        "meta_rev_at_epoch": 94796,
        "meta_bstar": 0.00098360292,
        "meta_mean_motion_dot": 1.902e-05,
        "meta_mean_motion_ddot": 0,
        "tle_line1": "1 30893U 99025AYF 25340.35052382  .00001902  00000+0  98360-3 0  9990",
        "tle_line2": "2 30893  98.2580   8.1876 0309588 110.7500 318.9405 13.94039277947964"
      },
      "geometry": {
        "type": "Point",
        "coordinates": [
          88.05801532415866,
          -81.49376757035469
        ]
      }
    },
    {
      "type": "Feature",
      "properties": {
        "norad_id": 30895,
        "name": "FENGYUN 1C DEB",
        "group": "fengyun-1c-debris",
        "lat": -42.40765145365702,
        "lon": -135.0976218792814,
        "alt_km": 795.8772465992452,
        "timestamp": "2025-12-10T11:33:53.664640+00:00",
        "meta_object_name": "FENGYUN 1C DEB",
        "meta_object_id": "1999-025AYH",
        "meta_epoch": "2025-12-10T04:05:47.772384",
        "meta_mean_motion": 14.31537265,
        "meta_eccentricity": 0.0218027,
        "meta_inclination": 98.7194,
        "meta_ra_of_asc_node": 52.6475,
        "meta_arg_of_pericenter": 131.6046,
        "meta_mean_anomaly": 286.0683,
        "meta_ephemeris_type": 0,
        "meta_classification_type": "U",
        "meta_norad_cat_id": 30895,
        "meta_element_set_no": 999,
        "meta_rev_at_epoch": 97756,
        "meta_bstar": 0.0005912,
        "meta_mean_motion_dot": 1.993e-05,
        "meta_mean_motion_ddot": 0,
        "tle_line1": "1 30895U 99025AYH 25344.17069181  .00001993  00000+0  59120-3 0  9992",
        "tle_line2": "2 30895  98.7194  52.6475 0218027 131.6046 286.0683 14.31537265977569"
      },
      "geometry": {
        "type": "Point",
        "coordinates": [
          -135.0976218792814,
          -42.40765145365702
        ]
      }
    },
    {
      "type": "Feature",
      "properties": {
        "norad_id": 30898,
        "name": "FENGYUN 1C DEB",
        "group": "fengyun-1c-debris",
        "lat": 1.2261476697738518,
        "lon": -104.70519574579221,
        "alt_km": 516.1281798157806,
        "timestamp": "2025-12-10T11:33:53.664650+00:00",
        "meta_object_name": "FENGYUN 1C DEB",
        "meta_object_id": "1999-025AYL",
        "meta_epoch": "2025-12-05T11:34:54.125760",
        "meta_mean_motion": 15.20738594,
        "meta_eccentricity": 0.00403265,
        "meta_inclination": 99.0264,
        "meta_ra_of_asc_node": 249.5052,
        "meta_arg_of_pericenter": 135.2764,
        "meta_mean_anomaly": 225.173,
        "meta_ephemeris_type": 0,
        "meta_classification_type": "U",
        "meta_norad_cat_id": 30898,
        "meta_element_set_no": 999,
        "meta_rev_at_epoch": 66261,
        "meta_bstar": 0.0042104008,
        "meta_mean_motion_dot": 0.00095752,
        "meta_mean_motion_ddot": 0,
        "tle_line1": "1 30898U 99025AYL 25339.48257090  .00095752  00000+0  42104-2 0  9990",
        "tle_line2": "2 30898  99.0264 249.5052 0040326 135.2764 225.1730 15.20738594662615"
      },
      "geometry": {
        "type": "Point",
        "coordinates": [
          -104.70519574579221,
          1.2261476697738518
        ]
      }
    },
    {
      "type": "Feature",
      "properties": {
        "norad_id": 30903,
        "name": "FENGYUN 1C DEB",
        "group": "fengyun-1c-debris",
        "lat": -29.862247586558066,
        "lon": -124.51286829154724,
        "alt_km": 952.2627406712181,
        "timestamp": "2025-12-10T11:33:53.664660+00:00",
        "meta_object_name": "FENGYUN 1C DEB",
        "meta_object_id": "1999-025AYR",
        "meta_epoch": "2025-12-07T09:49:46.651872",
        "meta_mean_motion": 13.9759553,
        "meta_eccentricity": 0.00968558,
        "meta_inclination": 99.3712,
        "meta_ra_of_asc_node": 226.9134,
        "meta_arg_of_pericenter": 107.4967,
        "meta_mean_anomaly": 253.6808,
        "meta_ephemeris_type": 0,
        "meta_classification_type": "U",
        "meta_norad_cat_id": 30903,
        "meta_element_set_no": 999,
        "meta_rev_at_epoch": 68630,
        "meta_bstar": 0.0004593066,
        "meta_mean_motion_dot": 6.28e-06,
        "meta_mean_motion_ddot": 0,
        "tle_line1": "1 30903U 99025AYR 25341.40956773  .00000628  00000+0  45931-3 0  9996",
        "tle_line2": "2 30903  99.3712 226.9134 0096855 107.4967 253.6808 13.97595530686304"
      },
      "geometry": {
        "type": "Point",
        "coordinates": [
          -124.51286829154724,
          -29.862247586558066
        ]
      }
    },
    {
      "type": "Feature",
      "properties": {
        "norad_id": 30905,
        "name": "FENGYUN 1C DEB",
        "group": "fengyun-1c-debris",
        "lat": 19.830503640786162,
        "lon": -116.88731449602989,
        "alt_km": 820.2853954419552,
        "timestamp": "2025-12-10T11:33:53.664669+00:00",
        "meta_object_name": "FENGYUN 1C DEB",
        "meta_object_id": "1999-025AYT",
        "meta_epoch": "2025-12-08T23:15:07.853760",
        "meta_mean_motion": 14.17815093,
        "meta_eccentricity": 0.0056929,
        "meta_inclination": 98.8892,
        "meta_ra_of_asc_node": 58.3633,
        "meta_arg_of_pericenter": 91.4646,
        "meta_mean_anomaly": 269.3051,
        "meta_ephemeris_type": 0,
        "meta_classification_type": "U",
        "meta_norad_cat_id": 30905,
        "meta_element_set_no": 999,
        "meta_rev_at_epoch": 96069,
        "meta_bstar": 0.0017475,
        "meta_mean_motion_dot": 3.58e-05,
        "meta_mean_motion_ddot": 0,
        "tle_line1": "1 30905U 99025AYT 25342.96884090  .00003580  00000+0  17475-2 0  9993",
        "tle_line2": "2 30905  98.8892  58.3633 0056929  91.4646 269.3051 14.17815093960697"
      },
      "geometry": {
        "type": "Point",
        "coordinates": [
          -116.88731449602989,
          19.830503640786162
        ]
      }
    },
    {
      "type": "Feature",
      "properties": {
        "norad_id": 30907,
        "name": "FENGYUN 1C DEB",
        "group": "fengyun-1c-debris",
        "lat": 43.2456900254345,
        "lon": -166.2092181280225,
        "alt_km": 798.0837471342311,
        "timestamp": "2025-12-10T11:33:53.664680+00:00",
        "meta_object_name": "FENGYUN 1C DEB",
        "meta_object_id": "1999-025AYV",
        "meta_epoch": "2025-12-09T21:21:03.076416",
        "meta_mean_motion": 14.15071853,
        "meta_eccentricity": 0.0056417,
        "meta_inclination": 99.9526,
        "meta_ra_of_asc_node": 3.625,
        "meta_arg_of_pericenter": 146.1044,
        "meta_mean_anomaly": 214.3752,
        "meta_ephemeris_type": 0,
        "meta_classification_type": "U",
        "meta_norad_cat_id": 30907,
        "meta_element_set_no": 999,
        "meta_rev_at_epoch": 1509,
        "meta_bstar": 0.0012838,
        "meta_mean_motion_dot": 2.474e-05,
        "meta_mean_motion_ddot": 0,
        "tle_line1": "1 30907U 99025AYV 25343.88961894  .00002474  00000+0  12838-2 0  9994",
        "tle_line2": "2 30907  99.9526   3.6250 0056417 146.1044 214.3752 14.15071853 15094"
      },
      "geometry": {
        "type": "Point",
        "coordinates": [
          -166.2092181280225,
          43.2456900254345
        ]
      }
    }
  ]
}